{"type": "FeatureCollection", "features": [ {"type": "Feature", "properties": {"norad_id": 34375, "name": "IRIDIUM 33 DEB", "group": "iridium-33-debris", "lat": 25.844485631590427, "lon": 1.9733438209192458, "alt_km": 761.1820658122433, "timestamp": "2025-12-10T05:46:14.210987+00:00", "meta": {"OBJECT_NAME": "IRIDIUM 33 DEB", "OBJECT_ID": "1997-051FT", "EPOCH": "2025-12-09T12:12:31.902912", "MEAN_MOTION": 14.17984003, "ECCENTRICITY": 0.01030688, "INCLINATION": 86.4325, "RA_OF_ASC_NODE": 183.9999, "ARG_OF_PERICENTER": 136.8871, "MEAN_ANOMALY": 243.7031, "EPHEMERIS_TYPE": 0, "CLASSIFICATION_TYPE": "U", "NORAD_CAT_ID": 34375, "ELEMENT_SET_NO": 999, "REV_AT_EPOCH": 86666, "BSTAR": 0.00067002905, "MEAN_MOTION_DOT": 1.464e-05, "MEAN_MOTION_DDOT": 0}, "tle": {"line1": "1 34375U 97051FT  25343.50870258  .00001464  00000+0  67003-3 0  9999", "line2": "2 34375  86.4325 183.9999 0103068 136.8871 243.7031 14.17984003866661"}}, "geometry": {"type": "Point", "coordinates": [1.9733438209192458, 25.844485631590427]}}, {"type": "Feature", "properties": {"norad_id": 34376, "name": "IRIDIUM 33 DEB", "group": "iridium-33-debris", "lat": 54.31104685071498, "lon": -177.5073929276407, "alt_km": 667.7125047016261, "timestamp": "2025-12-10T05:46:14.210998+00:00", "meta": {"OBJECT_NAME": "IRIDIUM 33 DEB", "OBJECT_ID": "1997-051FU", "EPOCH": "2025-12-09T19:20:43.537344", "MEAN_MOTION": 14.62499755, "ECCENTRICITY": 0.0026858, "INCLINATION": 86.2987, "RA_OF_ASC_NODE": 7.8584, "ARG_OF_PERICENTER": 176.5212, "MEAN_ANOMALY": 183.6192, "EPHEMERIS_TYPE": 0, "CLASSIFICATION_TYPE": "U", "NORAD_CAT_ID": 34376, "ELEMENT_SET_NO": 999, "REV_AT_EPOCH": 87964, "BSTAR": 0.0022339, "MEAN_MOTION_DOT": 0.0001141, "MEAN_MOTION_DDOT": 0}, "tle": {"line1": "1 34376U 97051FU  25343.80605946  .00011410  00000+0  22339-2 0  9997", "line2": "2 34376  86.2987   7.8584 0026858 176.5212 183.6192 14.62499755879646"}}, "geometry": {"type": "Point", "coordinates": [-177.5073929276407, 54.31104685071498]}}, {"type": "Feature", "properties": {"norad_id": 34486, "name": "IRIDIUM 33 DEB", "group": "iridium-33-debris", "lat": 43.9330972711094, "lon": 16.661843491162664, "alt_km": 574.6931833776362, "timestamp": "2025-12-10T05:46:14.211008+00:00", "meta": {"OBJECT_NAME": "IRIDIUM 33 DEB", "OBJECT_ID": "1997-051GB", "EPOCH": "2025-12-09T20:29:16.279296", "MEAN_MOTION": 14.95582817, "ECCENTRICITY": 0.0013426, "INCLINATION": 86.3936, "RA_OF_ASC_NODE": 13.3566, "ARG_OF_PERICENTER": 121.8736, "MEAN_ANOMALY": 1.3041, "EPHEMERIS_TYPE": 0, "CLASSIFICATION_TYPE": "U", "NORAD_CAT_ID": 34486, "ELEMENT_SET_NO": 999, "REV_AT_EPOCH": 88943, "BSTAR": 0.0030189, "MEAN_MOTION_DOT": 0.00033694, "MEAN_MOTION_DDOT": 0}, "tle": {"line1": "1 34486U 97051GB  25343.85366064  .00033694  00000+0  30189-2 0  9999", "line2": "2 34486  86.3936  13.3566 0013426 121.8736   1.3041 14.95582817889431"}}, "geometry": {"type": "Point", "coordinates": [16.661843491162664, 43.9330972711094]}}, {"type": "Feature", "properties": {"norad_id": 34487, "name": "IRIDIUM 33 DEB", "group": "iridium-33-debris", "lat": 8.38361890858053, "lon": -167.08648198521132, "alt_km": 730.8861601101562, "timestamp": "2025-12-10T05:46:14.211018+00:00", "meta": {"OBJECT_NAME": "IRIDIUM 33 DEB", "OBJECT_ID": "1997-051GC", "EPOCH": "2025-12-09T13:02:34.225152", "MEAN_MOTION": 14.43210481, "ECCENTRICITY": 0.0032512, "INCLINATION": 86.3437, "RA_OF_ASC_NODE": 13.7534, "ARG_OF_PERICENTER": 138.4387, "MEAN_ANOMALY": 13.878, "EPHEMERIS_TYPE": 0, "CLASSIFICATION_TYPE": "U", "NORAD_CAT_ID": 34487, "ELEMENT_SET_NO": 999, "REV_AT_EPOCH": 88202, "BSTAR": 0.00032204, "MEAN_MOTION_DOT": 1.109e-05, "MEAN_MOTION_DDOT": 0}, "tle": {"line1": "1 34487U 97051GC  25343.54345168  .00001109  00000+0  32204-3 0  9995", "line2": "2 34487  86.3437  13.7534 0032512 138.4387  13.8780 14.43210481882024"}}, "geometry": {"type": "Point", "coordinates": [-167.08648198521132, 8.38361890858053]}}, {"type": "Feature", "properties": {"norad_id": 34488, "name": "IRIDIUM 33 DEB", "group": "iridium-33-debris", "lat": 86.23019798072413, "lon": 24.360316227725118, "alt_km": 465.1197322346543, "timestamp": "2025-12-10T05:46:14.211028+00:00", "meta": {"OBJECT_NAME": "IRIDIUM 33 DEB", "OBJECT_ID": "1997-051GD", "EPOCH": "2025-12-09T15:14:24.291168", "MEAN_MOTION": 15.28228201, "ECCENTRICITY": 0.0014113, "INCLINATION": 86.3246, "RA_OF_ASC_NODE": 307.3494, "ARG_OF_PERICENTER": 56.5071, "MEAN_ANOMALY": 303.7522, "EPHEMERIS_TYPE": 0, "CLASSIFICATION_TYPE": "U", "NORAD_CAT_ID": 34488, "ELEMENT_SET_NO": 999, "REV_AT_EPOCH": 89192, "BSTAR": 0.0059279, "MEAN_MOTION_DOT": 0.00166796, "MEAN_MOTION_DDOT": 0}, "tle": {"line1": "1 34488U 97051GD  25343.63500337  .00166796  00000+0  59279-2 0  9991", "line2": "2 34488  86.3246 307.3494 0014113  56.5071 303.7522 15.28228201891924"}}, "geometry": {"type": "Point", "coordinates": [24.360316227725118, 86.23019798072413]}}, {"type": "Feature", "properties": {"norad_id": 34492, "name": "IRIDIUM 33 DEB", "group": "iridium-33-debris", "lat": 58.64126392837293, "lon": -18.55335313589505, "alt_km": 935.7467445406119, "timestamp": "2025-12-10T05:46:14.211038+00:00", "meta": {"OBJECT_NAME": "IRIDIUM 33 DEB", "OBJECT_ID": "1997-051GH", "EPOCH": "2025-12-09T11:35:07.823616", "MEAN_MOTION": 14.25591238, "ECCENTRICITY": 0.01894647, "INCLINATION": 86.4738, "RA_OF_ASC_NODE": 335.9453, "ARG_OF_PERICENTER": 248.7156, "MEAN_ANOMALY": 243.5947, "EPHEMERIS_TYPE": 0, "CLASSIFICATION_TYPE": "U", "NORAD_CAT_ID": 34492, "ELEMENT_SET_NO": 999, "REV_AT_EPOCH": 85012, "BSTAR": 0.0075389978, "MEAN_MOTION_DOT": 0.00021601, "MEAN_MOTION_DDOT": 0}, "tle": {"line1": "1 34492U 97051GH  25343.48272944  .00021601  00000+0  75390-2 0  9996", "line2": "2 34492  86.4738 335.9453 0189464 248.7156 243.5947 14.25591238850127"}}, "geometry": {"type": "Point", "coordinates": [-18.55335313589505, 58.64126392837293]}}, {"type": "Feature", "properties": {"norad_id": 34497, "name": "IRIDIUM 33 DEB", "group": "iridium-33-debris", "lat": -79.17560477863438, "lon": 33.56586689114837, "alt_km": 785.6609139408092, "timestamp": "2025-12-10T05:46:14.211048+00:00", "meta": {"OBJECT_NAME": "IRIDIUM 33 DEB", "OBJECT_ID": "1997-051GN", "EPOCH": "2025-12-09T05:09:24.196032", "MEAN_MOTION": 14.27438084, "ECCENTRICITY": 0.0079165, "INCLINATION": 86.2781, "RA_OF_ASC_NODE": 53.9075, "ARG_OF_PERICENTER": 351.0726, "MEAN_ANOMALY": 63.0332, "EPHEMERIS_TYPE": 0, "CLASSIFICATION_TYPE": "U", "NORAD_CAT_ID": 34497, "ELEMENT_SET_NO": 999, "REV_AT_EPOCH": 86833, "BSTAR": 0.0009704, "MEAN_MOTION_DOT": 2.479e-05, "MEAN_MOTION_DDOT": 0}, "tle": {"line1": "1 34497U 97051GN  25343.21486338  .00002479  00000+0  97040-3 0  9995", "line2": "2 34497  86.2781  53.9075 0079165 351.0726  63.0332 14.27438084868338"}}, "geometry": {"type": "Point", "coordinates": [33.56586689114837, -79.17560477863438]}}, {"type": "Feature", "properties": {"norad_id": 34508, "name": "IRIDIUM 33 DEB", "group": "iridium-33-debris", "lat": -19.229235981695837, "lon": 102.43397984716981, "alt_km": 813.1818474622478, "timestamp": "2025-12-10T05:46:14.211062+00:00", "meta": {"OBJECT_NAME": "IRIDIUM 33 DEB", "OBJECT_ID": "1997-051GZ", "EPOCH": "2025-12-09T08:09:22.353120", "MEAN_MOTION": 14.38378471, "ECCENTRICITY": 0.00659121, "INCLINATION": 86.3702, "RA_OF_ASC_NODE": 104.0845, "ARG_OF_PERICENTER": 183.8965, "MEAN_ANOMALY": 176.1729, "EPHEMERIS_TYPE": 0, "CLASSIFICATION_TYPE": "U", "NORAD_CAT_ID": 34508, "ELEMENT_SET_NO": 999, "REV_AT_EPOCH": 87260, "BSTAR": 0.0023049573, "MEAN_MOTION_DOT": 7.224e-05, "MEAN_MOTION_DDOT": 0}, "tle": {"line1": "1 34508U 97051GZ  25343.33984205  .00007224  00000+0  23050-2 0  9999", "line2": "2 34508  86.3702 104.0845 0065912 183.8965 176.1729 14.38378471872605"}}, "geometry": {"type": "Point", "coordinates": [102.43397984716981, -19.229235981695837]}}, {"type": "Feature", "properties": {"norad_id": 34521, "name": "IRIDIUM 33 DEB", "group": "iridium-33-debris", "lat": -65.49555679557184, "lon": 23.66458537890139, "alt_km": 689.3138633431299, "timestamp": "2025-12-10T05:46:14.211073+00:00", "meta": {"OBJECT_NAME": "IRIDIUM 33 DEB", "OBJECT_ID": "1997-051HN", "EPOCH": "2025-12-09T10:22:36.054336", "MEAN_MOTION": 14.63320774, "ECCENTRICITY": 0.00012328, "INCLINATION": 86.3799, "RA_OF_ASC_NODE": 32.0038, "ARG_OF_PERICENTER": 237.8673, "MEAN_ANOMALY": 122.2419, "EPHEMERIS_TYPE": 0, "CLASSIFICATION_TYPE": "U", "NORAD_CAT_ID": 34521, "ELEMENT_SET_NO": 999, "REV_AT_EPOCH": 88424, "BSTAR": 0.0013249324, "MEAN_MOTION_DOT": 6.86e-05, "MEAN_MOTION_DDOT": 0}, "tle": {"line1": "1 34521U 97051HN  25343.43236174  .00006860  00000+0  13249-2 0  9994", "line2": "2 34521  86.3799  32.0038 0001232 237.8673 122.2419 14.63320774884243"}}, "geometry": {"type": "Point", "coordinates": [23.66458537890139, -65.49555679557184]}}, {"type": "Feature", "properties": {"norad_id": 34525, "name": "IRIDIUM 33 DEB", "group": "iridium-33-debris", "lat": -62.81719349950454, "lon": 40.81531570515857, "alt_km": 760.8013417897755, "timestamp": "2025-12-10T05:46:14.211083+00:00", "meta": {"OBJECT_NAME": "IRIDIUM 33 DEB", "OBJECT_ID": "1997-051HS", "EPOCH": "2025-12-09T15:47:29.903136", "MEAN_MOTION": 14.42894832, "ECCENTRICITY": 0.00067, "INCLINATION": 86.3728, "RA_OF_ASC_NODE": 48.159, "ARG_OF_PERICENTER": 102.4464, "MEAN_ANOMALY": 50.9886, "EPHEMERIS_TYPE": 0, "CLASSIFICATION_TYPE": "U", "NORAD_CAT_ID": 34525, "ELEMENT_SET_NO": 999, "REV_AT_EPOCH": 88043, "BSTAR": 0.00063201, "MEAN_MOTION_DOT": 2.13e-05, "MEAN_MOTION_DDOT": 0}, "tle": {"line1": "1 34525U 97051HS  25343.65798499  .00002130  00000+0  63201-3 0  9995", "line2": "2 34525  86.3728  48.1590 0006700 102.4464  50.9886 14.42894832880430"}}, "geometry": {"type": "Point", "coordinates": [40.81531570515857, -62.81719349950454]}}]}